{"type": "FeatureCollection", "features": [ {"type": "Feature", "properties": {"norad_id": 35290, "name": "COSMOS 2251 DEB", "group": "cosmos-2251-debris", "lat": -68.23104150745775, "lon": -5.718424994771865, "alt_km": 634.525045554713, "timestamp": "2025-12-22T11:33:20.836055+00:00", "meta": {"OBJECT_NAME": "COSMOS 2251 DEB", "OBJECT_ID": "1993-036AJU", "EPOCH": "2025-12-20T03:08:10.287168", "MEAN_MOTION": 14.80565596, "ECCENTRICITY": 0.00016036, "INCLINATION": 74.0049, "RA_OF_ASC_NODE": 44.8368, "ARG_OF_PERICENTER": 190.188, "MEAN_ANOMALY": 169.9265, "EPHEMERIS_TYPE": 0, "CLASSIFICATION_TYPE": "U", "NORAD_CAT_ID": 35290, "ELEMENT_SET_NO": 999, "REV_AT_EPOCH": 88067, "BSTAR": 0.0010027753, "MEAN_MOTION_DOT": 7.664e-05, "MEAN_MOTION_DDOT": 0}, "tle": {"line1": "1 35290U 93036AJU 25354.13067462  .00007664  00000+0  10028-2 0  9993", "line2": "2 35290  74.0049  44.8368 0001603 190.1880 169.9265 14.80565596880671"}}, "geometry": {"type": "Point", "coordinates": [-5.718424994771865, -68.23104150745775]}}, {"type": "Feature", "properties": {"norad_id": 35432, "name": "COSMOS 2251 DEB", "group": "cosmos-2251-debris", "lat": -47.14332569598522, "lon": -167.02006242921289, "alt_km": 500.11151216567396, "timestamp": "2025-12-22T11:33:20.836065+00:00", "meta": {"OBJECT_NAME": "COSMOS 2251 DEB", "OBJECT_ID": "1993-036AKA", "EPOCH": "2025-12-21T17:13:22.393056", "MEAN_MOTION": 15.24185927, "ECCENTRICITY": 0.0012248, "INCLINATION": 74.0219, "RA_OF_ASC_NODE": 356.6044, "ARG_OF_PERICENTER": 325.9977, "MEAN_ANOMALY": 34.0436, "EPHEMERIS_TYPE": 0, "CLASSIFICATION_TYPE": "U", "NORAD_CAT_ID": 35432, "ELEMENT_SET_NO": 999, "REV_AT_EPOCH": 87640, "BSTAR": 0.0022539, "MEAN_MOTION_DOT": 0.00055403, "MEAN_MOTION_DDOT": 0}, "tle": {"line1": "1 35432U 93036AKA 25355.71762029  .00055403  00000+0  22539-2 0  9991", "line2": "2 35432  74.0219 356.6044 0012248 325.9977  34.0436 15.24185927876408"}}, "geometry": {"type": "Point", "coordinates": [-167.02006242921289, -47.14332569598522]}}, {"type": "Feature", "properties": {"norad_id": 35433, "name": "COSMOS 2251 DEB", "group": "cosmos-2251-debris", "lat": 9.191087646148606, "lon": 137.94892666439014, "alt_km": 793.9049211881929, "timestamp": "2025-12-22T11:33:20.836075+00:00", "meta": {"OBJECT_NAME": "COSMOS 2251 DEB", "OBJECT_ID": "1993-036AKB", "EPOCH": "2025-12-10T18:27:52.031808", "MEAN_MOTION": 14.34742553, "ECCENTRICITY": 0.00254013, "INCLINATION": 74.0339, "RA_OF_ASC_NODE": 342.0559, "ARG_OF_PERICENTER": 37.4572, "MEAN_ANOMALY": 142.4072, "EPHEMERIS_TYPE": 0, "CLASSIFICATION_TYPE": "U", "NORAD_CAT_ID": 35433, "ELEMENT_SET_NO": 999, "REV_AT_EPOCH": 86552, "BSTAR": 0.00041847558, "MEAN_MOTION_DOT": 1.164e-05, "MEAN_MOTION_DDOT": 0}, "tle": {"line1": "1 35433U 93036AKB 25344.76935222  .00001164  00000+0  41848-3 0  9992", "line2": "2 35433  74.0339 342.0559 0025401  37.4572 142.4072 14.34742553865528"}}, "geometry": {"type": "Point", "coordinates": [137.94892666439014, 9.191087646148606]}}, {"type": "Feature", "properties": {"norad_id": 35434, "name": "COSMOS 2251 DEB", "group": "cosmos-2251-debris", "lat": 49.949313168333795, "lon": -3.8622093351289437, "alt_km": 847.2255759533346, "timestamp": "2025-12-22T11:33:20.836084+00:00", "meta": {"OBJECT_NAME": "COSMOS 2251 DEB", "OBJECT_ID": "1993-036AKC", "EPOCH": "2025-12-21T23:09:55.217952", "MEAN_MOTION": 14.25712741, "ECCENTRICITY": 0.0087315, "INCLINATION": 74.0392, "RA_OF_ASC_NODE": 196.9739, "ARG_OF_PERICENTER": 265.7891, "MEAN_ANOMALY": 93.3274, "EPHEMERIS_TYPE": 0, "CLASSIFICATION_TYPE": "U", "NORAD_CAT_ID": 35434, "ELEMENT_SET_NO": 999, "REV_AT_EPOCH": 86249, "BSTAR": 0.00059983, "MEAN_MOTION_DOT": 1.455e-05, "MEAN_MOTION_DDOT": 0}, "tle": {"line1": "1 35434U 93036AKC 25355.96522243  .00001455  00000+0  59983-3 0  9994", "line2": "2 35434  74.0392 196.9739 0087315 265.7891  93.3274 14.25712741862493"}}, "geometry": {"type": "Point", "coordinates": [-3.8622093351289437, 49.949313168333795]}}, {"type": "Feature", "properties": {"norad_id": 35435, "name": "COSMOS 2251 DEB", "group": "cosmos-2251-debris", "lat": 14.008982801535408, "lon": 88.99395927733246, "alt_km": 638.8196163593066, "timestamp": "2025-12-22T11:33:20.836095+00:00", "meta": {"OBJECT_NAME": "COSMOS 2251 DEB", "OBJECT_ID": "1993-036AKD", "EPOCH": "2025-12-21T14:40:33.079008", "MEAN_MOTION": 14.78710754, "ECCENTRICITY": 0.0007054, "INCLINATION": 74.0111, "RA_OF_ASC_NODE": 86.6037, "ARG_OF_PERICENTER": 183.8083, "MEAN_ANOMALY": 241.499, "EPHEMERIS_TYPE": 0, "CLASSIFICATION_TYPE": "U", "NORAD_CAT_ID": 35435, "ELEMENT_SET_NO": 999, "REV_AT_EPOCH": 87670, "BSTAR": 0.0016617, "MEAN_MOTION_DOT": 0.00012188, "MEAN_MOTION_DDOT": 0}, "tle": {"line1": "1 35435U 93036AKD 25355.61149397  .00012188  00000+0  16617-2 0  9993", "line2": "2 35435  74.0111  86.6037 0007054 183.8083 241.4990 14.78710754876704"}}, "geometry": {"type": "Point", "coordinates": [88.99395927733246, 14.008982801535408]}}, {"type": "Feature", "properties": {"norad_id": 35439, "name": "COSMOS 2251 DEB", "group": "cosmos-2251-debris", "lat": 4.330021236131538, "lon": -63.19477897538578, "alt_km": 976.8668010054434, "timestamp": "2025-12-22T11:33:20.836105+00:00", "meta": {"OBJECT_NAME": "COSMOS 2251 DEB", "OBJECT_ID": "1993-036AKH", "EPOCH": "2025-12-20T15:40:28.809408", "MEAN_MOTION": 13.92842634, "ECCENTRICITY": 0.0242584, "INCLINATION": 74.0193, "RA_OF_ASC_NODE": 121.1801, "ARG_OF_PERICENTER": 288.7541, "MEAN_ANOMALY": 84.8538, "EPHEMERIS_TYPE": 0, "CLASSIFICATION_TYPE": "U", "NORAD_CAT_ID": 35439, "ELEMENT_SET_NO": 999, "REV_AT_EPOCH": 84071, "BSTAR": 0.0011295, "MEAN_MOTION_DOT": 1.838e-05, "MEAN_MOTION_DDOT": 0}, "tle": {"line1": "1 35439U 93036AKH 25354.65311122  .00001838  00000+0  11295-2 0  9994", "line2": "2 35439  74.0193 121.1801 0242584 288.7541  84.8538 13.92842634840712"}}, "geometry": {"type": "Point", "coordinates": [-63.19477897538578, 4.330021236131538]}}, {"type": "Feature", "properties": {"norad_id": 35440, "name": "COSMOS 2251 DEB", "group": "cosmos-2251-debris", "lat": 31.368811652252337, "lon": -161.18373404763062, "alt_km": 642.1705379554569, "timestamp": "2025-12-22T11:33:20.836114+00:00", "meta": {"OBJECT_NAME": "COSMOS 2251 DEB", "OBJECT_ID": "1993-036AKJ", "EPOCH": "2025-12-17T20:15:19.490976", "MEAN_MOTION": 14.68838958, "ECCENTRICITY": 0.00695054, "INCLINATION": 74.0134, "RA_OF_ASC_NODE": 197.7346, "ARG_OF_PERICENTER": 337.3687, "MEAN_ANOMALY": 22.4422, "EPHEMERIS_TYPE": 0, "CLASSIFICATION_TYPE": "U", "NORAD_CAT_ID": 35440, "ELEMENT_SET_NO": 999, "REV_AT_EPOCH": 68840, "BSTAR": 0.00030670457, "MEAN_MOTION_DOT": 1.824e-05, "MEAN_MOTION_DDOT": 0}, "tle": {"line1": "1 35440U 93036AKJ 25351.84397559  .00001824  00000+0  30670-3 0  9996", "line2": "2 35440  74.0134 197.7346 0069505 337.3687  22.4422 14.68838958688408"}}, "geometry": {"type": "Point", "coordinates": [-161.18373404763062, 31.368811652252337]}}, {"type": "Feature", "properties": {"norad_id": 35441, "name": "COSMOS 2251 DEB", "group": "cosmos-2251-debris", "lat": 48.228981337865505, "lon": 80.97940561577562, "alt_km": 661.2456675165577, "timestamp": "2025-12-22T11:33:20.836124+00:00", "meta": {"OBJECT_NAME": "COSMOS 2251 DEB", "OBJECT_ID": "1993-036AKK", "EPOCH": "2025-12-21T02:08:13.738560", "MEAN_MOTION": 14.62705296, "ECCENTRICITY": 0.00361872, "INCLINATION": 74.1353, "RA_OF_ASC_NODE": 282.196, "ARG_OF_PERICENTER": 175.8941, "MEAN_ANOMALY": 184.2531, "EPHEMERIS_TYPE": 0, "CLASSIFICATION_TYPE": "U", "NORAD_CAT_ID": 35441, "ELEMENT_SET_NO": 999, "REV_AT_EPOCH": 87552, "BSTAR": 0.00090653358, "MEAN_MOTION_DOT": 4.633e-05, "MEAN_MOTION_DDOT": 0}, "tle": {"line1": "1 35441U 93036AKK 25355.08904790  .00004633  00000+0  90653-3 0  9996", "line2": "2 35441  74.1353 282.1960 0036187 175.8941 184.2531 14.62705296875523"}}, "geometry": {"type": "Point", "coordinates": [80.97940561577562, 48.228981337865505]}}, {"type": "Feature", "properties": {"norad_id": 35442, "name": "COSMOS 2251 DEB", "group": "cosmos-2251-debris", "lat": 56.93284434121898, "lon": 105.89858799947609, "alt_km": 605.9546364633343, "timestamp": "2025-12-22T11:33:20.836134+00:00", "meta": {"OBJECT_NAME": "COSMOS 2251 DEB", "OBJECT_ID": "1993-036AKL", "EPOCH": "2025-12-21T15:52:41.510784", "MEAN_MOTION": 14.84721405, "ECCENTRICITY": 0.0003826, "INCLINATION": 74.0271, "RA_OF_ASC_NODE": 81.4264, "ARG_OF_PERICENTER": 51.6549, "MEAN_ANOMALY": 308.4973, "EPHEMERIS_TYPE": 0, "CLASSIFICATION_TYPE": "U", "NORAD_CAT_ID": 35442, "ELEMENT_SET_NO": 999, "REV_AT_EPOCH": 87485, "BSTAR": 0.0016051, "MEAN_MOTION_DOT": 0.00013595, "MEAN_MOTION_DDOT": 0}, "tle": {"line1": "1 35442U 93036AKL 25355.66159156  .00013595  00000+0  16051-2 0  9995", "line2": "2 35442  74.0271  81.4264 0003826  51.6549 308.4973 14.84721405874857"}}, "geometry": {"type": "Point", "coordinates": [105.89858799947609, 56.93284434121898]}}, {"type": "Feature", "properties": {"norad_id": 35443, "name": "COSMOS 2251 DEB", "group": "cosmos-2251-debris", "lat": 7.607428800110525, "lon": 129.62536879789053, "alt_km": 567.9167440621804, "timestamp": "2025-12-22T11:33:20.836144+00:00", "meta": {"OBJECT_NAME": "COSMOS 2251 DEB", "OBJECT_ID": "1993-036AKM", "EPOCH": "2025-12-21T07:32:20.929632", "MEAN_MOTION": 14.97363427, "ECCENTRICITY": 0.00728025, "INCLINATION": 73.99, "RA_OF_ASC_NODE": 314.1919, "ARG_OF_PERICENTER": 93.8694, "MEAN_ANOMALY": 267.0818, "EPHEMERIS_TYPE": 0, "CLASSIFICATION_TYPE": "U", "NORAD_CAT_ID": 35443, "ELEMENT_SET_NO": 999, "REV_AT_EPOCH": 87006, "BSTAR": 0.0032774365, "MEAN_MOTION_DOT": 0.00040387, "MEAN_MOTION_DDOT": 0}, "tle": {"line1": "1 35443U 93036AKM 25355.31413113  .00040387  00000+0  32774-2 0  9993", "line2": "2 35443  73.9900 314.1919 0072802  93.8694 267.0818 14.97363427870064"}}, "geometry": {"type": "Point", "coordinates": [129.62536879789053, 7.607428800110525]}}]}